TEVEL2-1                
1 63217U 25052H   26068.64782323  .00020683  00000+0  70600-3 0  9994
2 63217  97.3991 324.7682 0004767 104.8919 255.2849 15.30341923 54855
STARLINK-33874          
1 63825U 25092X   26068.29578196  .00018619  00000+0  68397-3 0  9991
2 63825  42.9998 174.8326 0001938 260.7571  99.3062 15.27601246 48608
